OBJECT_NAME,OBJECT_ID,EPOCH,MEAN_MOTION,ECCENTRICITY,INCLINATION,RA_OF_ASC_NODE,ARG_OF_PERICENTER,MEAN_ANOMALY,EPHEMERIS_TYPE,CLASSIFICATION_TYPE,NORAD_CAT_ID,ELEMENT_SET_NO,REV_AT_EPOCH,BSTAR,MEAN_MOTION_DOT,MEAN_MOTION_DDOT
CUBEBUG-2 (LO-74),2013-066AA,2026-07-13T09:17:00.180096,14.93959550,.0055889,97.8910,143.4812,301.4913,58.0852,0,U,39440,999,68090,.18138E-3,.1928E-4,0
FUNCUBE-1 (AO-73),2013-066AE,2026-07-13T10:29:12.640704,15.09805136,.0038021,97.8287,166.4387,113.3139,247.2098,0,U,39444,999,68362,.22113E-3,.3565E-4,0
UWE-3,2013-066AG,2026-07-13T09:58:18.420672,14.97191819,.0047494,97.8702,150.6713,230.6805,129.0202,0,U,39446,999,68150,.16195E-3,.1852E-4,0
UNISAT-6,2014-033C,2026-07-13T10:05:57.316992,14.88362420,.0044324,97.7906,346.6769,343.7133,16.2657,0,U,40012,999,65006,.13194E-3,.1186E-4,0
DUCHIFAT-1,2014-033M,2026-07-12T16:27:26.176896,15.70510170,.00021648,98.0440,256.5455,257.9613,102.1405,0,U,40021,999,65974,.89145614E-3,.110396E-2,0
QB50P1,2014-033R,2026-07-12T12:29:54.904704,15.18640557,.00102199,98.0964,206.4495,132.7489,227.4606,0,U,40025,999,65687,.25721199E-3,.5256E-4,0
LILACSAT-2,2015-049K,2026-07-13T12:22:32.541888,15.52318321,.000832,97.4627,232.3688,146.4565,213.7216,0,U,40908,999,59983,.20012E-3,.12095E-3,0
FOX-1A (AO-85),2015-058D,2026-07-13T09:02:14.152416,14.91081725,.0132208,64.7723,197.5870,46.4986,314.7024,0,U,40967,999,11747,.15942E-3,.169E-4,0
CAS-2T & KS-1Q,2016-066G,2026-07-13T05:05:23.360352,14.44767960,.03423502,98.3814,269.6505,50.7667,312.3386,0,U,41847,999,50855,.94681853E-4,.617E-5,0
RADFXSAT (FOX-1B),2017-073E,2026-07-13T01:39:12.117600,15.13044164,.01481375,97.4673,60.7567,238.8927,119.7700,0,U,43017,999,46930,.17409731E-3,.3953E-4,0
DIWATA-2B,2018-084H,2026-07-13T12:15:11.457792,15.00559650,.0012925,98.1218,31.8716,89.5817,270.6886,0,U,43678,999,42016,.10433E-3,.1252E-4,0
ES'HAIL 2,2018-090A,2026-07-13T11:52:33.496896,1.00269984,.0002154,0.0032,113.6818,45.9089,335.7013,0,U,43700,999,2794,0,.14E-5,0
FOX-1CLIFF (AO-95),2018-099N,2026-07-13T03:48:48.256704,15.27248870,.00071002,97.4377,254.3164,248.3656,111.6827,0,U,43770,999,41718,.288771E-3,.7642E-4,0
ITASAT,2018-099AE,2026-07-13T02:30:20.916864,15.19367142,.00107978,97.4018,245.1017,258.8384,101.1638,0,U,43786,999,41684,.19803325E-3,.4125E-4,0
JY1SAT (JO-97),2018-099AX,2026-07-11T16:29:36.040416,15.34443331,.00065178,97.4124,255.6172,168.9842,191.1545,0,U,43803,999,41738,.301087E-3,.9972E-4,0
UWE-4,2018-111E,2026-07-12T18:23:27.129408,15.47716069,.00057472,97.5844,123.3656,204.5147,155.5830,0,U,43880,999,41473,.53441815E-3,.27634E-3,0
TIANYAN 01,2019-093C,2026-07-13T11:57:26.018784,14.86561184,.0013735,97.7529,266.0876,7.3004,352.8409,0,U,44881,999,35532,.11015E-3,.924E-5,0
RS-44 & BREEZE-KM R/B,2019-096E,2026-07-13T10:19:34.099392,12.79748942,.0218551,82.5240,322.2668,83.0989,279.4919,0,U,44909,999,30570,-.46196E-4,.1E-7,0
SALSAT,2020-068K,2026-07-13T12:03:32.995872,15.30157505,.0008994,97.8854,199.1769,199.0887,161.0016,0,U,46495,999,31938,.15263E-3,.4373E-4,0
XW-3 (CAS-9),2021-131B,2026-07-13T12:04:27.396768,14.41380741,.0004699,98.4990,286.7510,35.0042,325.1455,0,U,50466,999,23890,.6747E-4,.174E-5,0
GREENCUBE (IO-117),2022-080E,2026-07-12T17:00:29.177856,6.42583319,.00090302,70.1415,289.3709,284.1311,75.8345,0,U,53109,999,9370,0,-.3E-7,0
UMKA 1 (RS40S),2023-091G,2026-07-13T11:24:45.301248,15.21109458,.0013214,97.5041,253.0741,35.2171,324.9935,0,U,57172,999,16800,.14644E-3,.3193E-4,0
CUBESX-HSE 3 (RS42S),2023-091N,2026-07-13T12:05:51.336096,15.31857955,.0009838,97.5085,260.4332,8.0771,352.0627,0,U,57178,999,16845,.24512E-3,.747E-4,0
MONITOR-3 (RS58S),2023-091Q,2026-07-13T10:57:46.935072,15.28351231,.0011184,97.5075,258.1024,15.8823,344.2765,0,U,57180,999,16830,.22445E-3,.6131E-4,0
MONITOR-4 (RS57S),2023-091S,2026-07-13T10:25:31.075680,15.28437681,.0011186,97.5069,258.0524,16.2412,343.9184,0,U,57182,999,16830,.22405E-3,.6136E-4,0
MONITOR-2 (RS39S),2023-091U,2026-07-13T11:08:43.929312,15.19144884,.0011571,97.5062,252.5790,29.7403,330.4487,0,U,57184,999,16794,.12953E-3,.2656E-4,0
SVYATOBOR 1 (RS60S),2023-091X,2026-07-13T11:17:50.491392,15.27045236,.0008914,97.5082,258.4384,10.8501,349.2928,0,U,57187,999,16832,.19953E-3,.5224E-4,0
VIZARD-METEO (RS38S),2023-091Z,2026-07-13T11:01:08.833728,15.36839605,.0005813,97.5086,264.4839,346.8106,13.2985,0,U,57189,999,16872,.28223E-3,.10085E-3,0
POLYTECH-UNIVERSE 3 (RS46S),2023-091AB,2026-07-13T11:42:45.119808,15.19357021,.0016203,97.5037,252.1065,43.3300,316.9205,0,U,57191,999,16794,.13624E-3,.2819E-4,0
UTMN 2 (RS27S),2023-091AP,2026-07-13T12:10:44.818752,15.32675813,.0006879,97.5081,262.1024,356.5153,3.6039,0,U,57203,999,16857,.22876E-3,.7142E-4,0
